start=new Date('2022-07-24T00:00:00.000Z').valueOf();
sats=[{"OBJECT_ID":"2021-005BH","INCLINATION":"53.0538","ARG_OF_PERICENTER":"57.6436","NORAD_CAT_ID":"47404","RCS_SIZE":"LARGE","SEMIMAJOR_AXIS":"6925.367","COUNTRY_CODE":"US","GP_ID":"208736800","LAUNCH_DATE":"2021-01-20","ELEMENT_SET_NO":"999","OBJECT_TYPE":"PAYLOAD","DECAY_DATE":null,"OBJECT_NAME":"STARLINK-2128","CLASSIFICATION_TYPE":"U","REF_FRAME":"TEME","APOAPSIS":"548.289","FILE":"3520602","BSTAR":"0.00002680400000","TIME_SYSTEM":"UTC","MEAN_MOTION":"15.06393882","SITE":"AFETR","REV_AT_EPOCH":"8376","EPOCH":"2022-07-23T17:45:50.088384","ECCENTRICITY":"0.00015260","MEAN_MOTION_DOT":"0.00000118","MEAN_MOTION_DDOT":"0.0000000000000","PERIAPSIS":"546.175","CENTER_NAME":"EARTH","EPHEMERIS_TYPE":"0","TLE_LINE2":"2 47404  53.0538 219.5559 0001526  57.6436 302.4701 15.06393882 83762","PERIOD":"95.593","MEAN_ELEMENT_THEORY":"SGP4","MEAN_ANOMALY":"302.4701","TLE_LINE1":"1 47404U 21005BH  22204.74016306  .00000118  00000-0  26804-4 0  9998","RA_OF_ASC_NODE":"219.5559"},{"MEAN_MOTION_DOT":"0.00000898","ECCENTRICITY":"0.00015990","MEAN_ELEMENT_THEORY":"SGP4","PERIOD":"95.592","TLE_LINE2":"2 47405  53.0527 249.0252 0001599  66.5004 293.6152 15.06399958 83355","TLE_LINE1":"1 47405U 21005BJ  22204.85535311  .00000898  00000-0  79197-4 0  9991","RA_OF_ASC_NODE":"249.0252","MEAN_ANOMALY":"293.6152","CENTER_NAME":"EARTH","PERIAPSIS":"546.106","MEAN_MOTION_DDOT":"0.0000000000000","EPHEMERIS_TYPE":"0","REF_FRAME":"TEME","APOAPSIS":"548.321","FILE":"3520602","REV_AT_EPOCH":"8335","SITE":"AFETR","EPOCH":"2022-07-23T20:31:42.508704","BSTAR":"0.00007919700000","TIME_SYSTEM":"UTC","MEAN_MOTION":"15.06399958","LAUNCH_DATE":"2021-01-20","OBJECT_TYPE":"PAYLOAD","ELEMENT_SET_NO":"999","CLASSIFICATION_TYPE":"U","DECAY_DATE":null,"OBJECT_NAME":"STARLINK-2130","NORAD_CAT_ID":"47405","RCS_SIZE":"LARGE","ARG_OF_PERICENTER":"66.5004","INCLINATION":"53.0527","OBJECT_ID":"2021-005BJ","SEMIMAJOR_AXIS":"6925.349","GP_ID":"208736551","COUNTRY_CODE":"US"},{"EPOCH":"2022-07-23T18:01:45.877152","REV_AT_EPOCH":"8376","SITE":"AFETR","MEAN_MOTION":"15.06392506","BSTAR":"0.00018000000000","TIME_SYSTEM":"UTC","FILE":"3520602","APOAPSIS":"548.088","REF_FRAME":"TEME","RA_OF_ASC_NODE":"219.5106","TLE_LINE1":"1 47406U 21005BK  22204.75122543  .00002400  00000-0  18000-3 0  9996","MEAN_ANOMALY":"271.7647","PERIOD":"95.593","MEAN_ELEMENT_THEORY":"SGP4","TLE_LINE2":"2 47406  53.0534 219.5106 0001230  88.3483 271.7647 15.06392506 83762","EPHEMERIS_TYPE":"0","CENTER_NAME":"EARTH","PERIAPSIS":"546.385","MEAN_MOTION_DDOT":"0.0000000000000","MEAN_MOTION_DOT":"0.00002400","ECCENTRICITY":"0.00012300","GP_ID":"208735799","COUNTRY_CODE":"US","SEMIMAJOR_AXIS":"6925.372","NORAD_CAT_ID":"47406","RCS_SIZE":"LARGE","ARG_OF_PERICENTER":"88.3483","INCLINATION":"53.0534","OBJECT_ID":"2021-005BK","CLASSIFICATION_TYPE":"U","OBJECT_NAME":"STARLINK-2133","DECAY_DATE":null,"OBJECT_TYPE":"PAYLOAD","ELEMENT_SET_NO":"999","LAUNCH_DATE":"2021-01-20"},{"OBJECT_TYPE":"PAYLOAD","ELEMENT_SET_NO":"999","LAUNCH_DATE":"2021-01-20","CLASSIFICATION_TYPE":"U","OBJECT_NAME":"STARLINK-2134","DECAY_DATE":null,"RCS_SIZE":"LARGE","NORAD_CAT_ID":"47407","ARG_OF_PERICENTER":"59.1833","INCLINATION":"53.0528","OBJECT_ID":"2021-005BL","GP_ID":"208736049","COUNTRY_CODE":"US","SEMIMAJOR_AXIS":"6925.330","MEAN_MOTION_DOT":"0.00003519","ECCENTRICITY":"0.00014780","TLE_LINE1":"1 47407U 21005BL  22204.75859125  .00003519  00000-0  25497-3 0  9990","RA_OF_ASC_NODE":"219.4743","MEAN_ANOMALY":"300.9302","MEAN_ELEMENT_THEORY":"SGP4","PERIOD":"95.592","TLE_LINE2":"2 47407  53.0528 219.4743 0001478  59.1833 300.9302 15.06406137 83760","EPHEMERIS_TYPE":"0","CENTER_NAME":"EARTH","PERIAPSIS":"546.171","MEAN_MOTION_DDOT":"0.0000000000000","FILE":"3520602","APOAPSIS":"548.218","REF_FRAME":"TEME","EPOCH":"2022-07-23T18:12:22.284000","SITE":"AFETR","REV_AT_EPOCH":"8376","MEAN_MOTION":"15.06406137","TIME_SYSTEM":"UTC","BSTAR":"0.00025497000000"},{"ELEMENT_SET_NO":"999","OBJECT_TYPE":"PAYLOAD","LAUNCH_DATE":"2021-01-20","OBJECT_NAME":"STARLINK-2135","DECAY_DATE":null,"CLASSIFICATION_TYPE":"U","OBJECT_ID":"2021-005BM","INCLINATION":"53.0535","ARG_OF_PERICENTER":"85.9471","RCS_SIZE":"LARGE","NORAD_CAT_ID":"47408","COUNTRY_CODE":"US","GP_ID":"208706744","SEMIMAJOR_AXIS":"6925.362","ECCENTRICITY":"0.00014420","MEAN_MOTION_DOT":"0.00001787","EPHEMERIS_TYPE":"0","PERIAPSIS":"546.228","MEAN_MOTION_DDOT":"0.0000000000000","CENTER_NAME":"EARTH","MEAN_ANOMALY":"274.1683","TLE_LINE1":"1 47408U 21005BM  22204.46372027  .00001787  00000-0  13885-3 0  9993","RA_OF_ASC_NODE":"220.8013","TLE_LINE2":"2 47408  53.0535 220.8013 0001442  85.9471 274.1683 15.06395716 83721","PERIOD":"95.592","MEAN_ELEMENT_THEORY":"SGP4","APOAPSIS":"548.225","FILE":"3520423","REF_FRAME":"TEME","MEAN_MOTION":"15.06395716","BSTAR":"0.00013885000000","TIME_SYSTEM":"UTC","EPOCH":"2022-07-23T11:07:45.431328","SITE":"AFETR","REV_AT_EPOCH":"8372"},{"ECCENTRICITY":"0.00017940","MEAN_MOTION_DOT":"-0.00000036","TLE_LINE2":"2 47548  53.0541 201.0705 0001794  51.9029 308.2121 15.06397598 81188","PERIOD":"95.592","MEAN_ELEMENT_THEORY":"SGP4","MEAN_ANOMALY":"308.2121","TLE_LINE1":"1 47548U 21009A   22204.40290132 -.00000036  00000-0  16467-4 0  9999","RA_OF_ASC_NODE":"201.0705","PERIAPSIS":"545.979","MEAN_MOTION_DDOT":"0.0000000000000","CENTER_NAME":"EARTH","EPHEMERIS_TYPE":"0","REF_FRAME":"TEME","APOAPSIS":"548.463","FILE":"3520423","REV_AT_EPOCH":"8118","SITE":"AFETR","EPOCH":"2022-07-23T09:40:10.674048","BSTAR":"0.00001646700000","TIME_SYSTEM":"UTC","MEAN_MOTION":"15.06397598","LAUNCH_DATE":"2021-02-04","ELEMENT_SET_NO":"999","OBJECT_TYPE":"PAYLOAD","CLASSIFICATION_TYPE":"U","DECAY_DATE":null,"OBJECT_NAME":"STARLINK-1782","ARG_OF_PERICENTER":"51.9029","NORAD_CAT_ID":"47548","RCS_SIZE":"LARGE","OBJECT_ID":"2021-009A","INCLINATION":"53.0541","SEMIMAJOR_AXIS":"6925.356","COUNTRY_CODE":"US","GP_ID":"208706260"},{"TIME_SYSTEM":"UTC","BSTAR":"0.00015013000000","MEAN_MOTION":"15.06406886","SITE":"AFETR","REV_AT_EPOCH":"8118","EPOCH":"2022-07-23T09:34:51.540960","REF_FRAME":"TEME","FILE":"3520423","APOAPSIS":"548.258","MEAN_MOTION_DDOT":"0.0000000000000","PERIAPSIS":"546.127","CENTER_NAME":"EARTH","EPHEMERIS_TYPE":"0","TLE_LINE2":"2 47549  53.0535 201.0823 0001539  68.2184 291.8969 15.06406886 81181","MEAN_ELEMENT_THEORY":"SGP4","PERIOD":"95.592","MEAN_ANOMALY":"291.8969","RA_OF_ASC_NODE":"201.0823","TLE_LINE1":"1 47549U 21009B   22204.39920765  .00001956  00000-0  15013-3 0  9996","ECCENTRICITY":"0.00015390","MEAN_MOTION_DOT":"0.00001956","SEMIMAJOR_AXIS":"6925.327","COUNTRY_CODE":"US","GP_ID":"208707511","OBJECT_ID":"2021-009B","INCLINATION":"53.0535","ARG_OF_PERICENTER":"68.2184","NORAD_CAT_ID":"47549","RCS_SIZE":"LARGE","DECAY_DATE":null,"OBJECT_NAME":"STARLINK-1806","CLASSIFICATION_TYPE":"U","LAUNCH_DATE":"2021-02-04","ELEMENT_SET_NO":"999","OBJECT_TYPE":"PAYLOAD"},{"ECCENTRICITY":"0.00017110","MEAN_MOTION_DOT":"0.00001270","MEAN_MOTION_DDOT":"0.0000000000000","PERIAPSIS":"546.041","CENTER_NAME":"EARTH","EPHEMERIS_TYPE":"0","TLE_LINE2":"2 47550  53.0528 189.8297 0001711  57.6330 302.4825 15.06395806 81369","MEAN_ELEMENT_THEORY":"SGP4","PERIOD":"95.592","MEAN_ANOMALY":"302.4825","TLE_LINE1":"1 47550U 21009C   22204.67658249  .00001270  00000-0  10419-3 0  9998","RA_OF_ASC_NODE":"189.8297","REF_FRAME":"TEME","APOAPSIS":"548.411","FILE":"3520602","TIME_SYSTEM":"UTC","BSTAR":"0.00010419000000","MEAN_MOTION":"15.06395806","REV_AT_EPOCH":"8136","SITE":"AFETR","EPOCH":"2022-07-23T16:14:16.727136","LAUNCH_DATE":"2021-02-04","ELEMENT_SET_NO":"999","OBJECT_TYPE":"PAYLOAD","DECAY_DATE":null,"OBJECT_NAME":"STARLINK-1909","CLASSIFICATION_TYPE":"U","OBJECT_ID":"2021-009C","INCLINATION":"53.0528","ARG_OF_PERICENTER":"57.6330","RCS_SIZE":"LARGE","NORAD_CAT_ID":"47550","SEMIMAJOR_AXIS":"6925.361","COUNTRY_CODE":"US","GP_ID":"208735815"},{"OBJECT_TYPE":"PAYLOAD","ELEMENT_SET_NO":"999","LAUNCH_DATE":"2021-02-04","OBJECT_NAME":"STARLINK-1938","DECAY_DATE":null,"CLASSIFICATION_TYPE":"U","INCLINATION":"53.0528","OBJECT_ID":"2021-009D","RCS_SIZE":"LARGE","NORAD_CAT_ID":"47551","ARG_OF_PERICENTER":"50.2903","GP_ID":"208736065","COUNTRY_CODE":"US","SEMIMAJOR_AXIS":"6925.324","MEAN_MOTION_DOT":"0.00002896","ECCENTRICITY":"0.00018770","EPHEMERIS_TYPE":"0","CENTER_NAME":"EARTH","PERIAPSIS":"545.889","MEAN_MOTION_DDOT":"0.0000000000000","RA_OF_ASC_NODE":"209.2762","TLE_LINE1":"1 47551U 21009D   22204.80374172  .00002896  00000-0  21317-3 0  9998","MEAN_ANOMALY":"309.8251","MEAN_ELEMENT_THEORY":"SGP4","PERIOD":"95.592","TLE_LINE2":"2 47551  53.0528 209.2762 0001877  50.2903 309.8251 15.06407964 81107","FILE":"3520602","APOAPSIS":"548.489","REF_FRAME":"TEME","MEAN_MOTION":"15.06407964","BSTAR":"0.00021317000000","TIME_SYSTEM":"UTC","EPOCH":"2022-07-23T19:17:23.284608","REV_AT_EPOCH":"8110","SITE":"AFETR"},{"RCS_SIZE":"LARGE","NORAD_CAT_ID":"47552","ARG_OF_PERICENTER":"62.1189","INCLINATION":"53.0538","OBJECT_ID":"2021-009E","SEMIMAJOR_AXIS":"6925.360","GP_ID":"208706760","COUNTRY_CODE":"US","LAUNCH_DATE":"2021-02-04","OBJECT_TYPE":"PAYLOAD","ELEMENT_SET_NO":"999","CLASSIFICATION_TYPE":"U","DECAY_DATE":null,"OBJECT_NAME":"STARLINK-1940","REF_FRAME":"TEME","APOAPSIS":"548.395","FILE":"3520423","SITE":"AFETR","REV_AT_EPOCH":"8119","EPOCH":"2022-07-23T11:26:19.580928","BSTAR":"-0.00005844500000","TIME_SYSTEM":"UTC","MEAN_MOTION":"15.06396251","MEAN_MOTION_DOT":"-0.00001152","ECCENTRICITY":"0.00016900","PERIOD":"95.592","MEAN_ELEMENT_THEORY":"SGP4","TLE_LINE2":"2 47552  53.0538 200.7420 0001690  62.1189 297.9971 15.06396251 81198","RA_OF_ASC_NODE":"200.7420","TLE_LINE1":"1 47552U 21009E   22204.47661552 -.00001152  00000-0 -58445-4 0  9992","MEAN_ANOMALY":"297.9971","CENTER_NAME":"EARTH","PERIAPSIS":"546.055","MEAN_MOTION_DDOT":"0.0000000000000","EPHEMERIS_TYPE":"0"}];
